[{"OBJECT_NAME":"STARLINK-32366","OBJECT_ID":"2024-184V","EPOCH":"2026-03-09T04:03:37.434528","MEAN_MOTION":15.30213666,"ECCENTRICITY":0.00013544,"INCLINATION":53.1624,"RA_OF_ASC_NODE":16.6139,"ARG_OF_PERICENTER":137.4615,"MEAN_ANOMALY":222.6491,"EPHEMERIS_TYPE":0,"CLASSIFICATION_TYPE":"U","NORAD_CAT_ID":61551,"ELEMENT_SET_NO":999,"REV_AT_EPOCH":7842,"BSTAR":-0.00016550885,"MEAN_MOTION_DOT":-5.26e-5,"MEAN_MOTION_DDOT":0},{"OBJECT_NAME":"W-SERIES 4","OBJECT_ID":"2025-135R","EPOCH":"2026-03-09T19:54:39.716640","MEAN_MOTION":15.01503849,"ECCENTRICITY":0.04025811,"INCLINATION":97.4458,"RA_OF_ASC_NODE":182.1022,"ARG_OF_PERICENTER":65.9998,"MEAN_ANOMALY":298.2822,"EPHEMERIS_TYPE":0,"CLASSIFICATION_TYPE":"U","NORAD_CAT_ID":64543,"ELEMENT_SET_NO":999,"REV_AT_EPOCH":3954,"BSTAR":0.00063083397,"MEAN_MOTION_DOT":0.00052628,"MEAN_MOTION_DDOT":2.148409e-6}]
